[{"spaceTrack":{"CCSDS_OMM_VERS":"2.0","COMMENT":"GENERATED VIA SPACE-TRACK.ORG API","CREATION_DATE":"2020-09-20 02:31:57","ORIGINATOR":"18 SPCS","OBJECT_NAME":"STARLINK-1025","OBJECT_ID":"2019-074T","CENTER_NAME":"EARTH","REF_FRAME":"TEME","TIME_SYSTEM":"UTC","MEAN_ELEMENT_THEORY":"SGP4","EPOCH":"2020-09-19 20:00:01.000224","MEAN_MOTION":15.05601163,"ECCENTRICITY":0.0001851,"INCLINATION":52.9979,"RA_OF_ASC_NODE":150.8553,"ARG_OF_PERICENTER":90.1136,"MEAN_ANOMALY":9.711,"EPHEMERIS_TYPE":0,"CLASSIFICATION_TYPE":"U","NORAD_CAT_ID":44730,"ELEMENT_SET_NO":999,"REV_AT_EPOCH":184,"BSTAR":-0.0022349,"MEAN_MOTION_DOT":-0.00032711,"MEAN_MOTION_DDOT":0,"SEMIMAJOR_AXIS":6927.797,"PERIOD":95.642,"APOAPSIS":550.945,"PERIAPSIS":548.38,"OBJECT_TYPE":"PAYLOAD","RCS_SIZE":"LARGE","COUNTRY_CODE":"US","LAUNCH_DATE":"2019-11-11","SITE":"AFETR","DECAY_DATE":null,"DECAYED":0,"FILE":2828634,"GP_ID":161759700,"TLE_LINE0":"0 STARLINK-1025","TLE_LINE1":"1 44730U 19074T   20263.83334491 -.00032711 +00000-0 -22349-2 0  9995","TLE_LINE2":"2 44730 052.9979 150.8553 0001851 090.1136 009.7110 15.05601163001842"},"version":"v1.0","launch":"5eb87d39ffd86e000604b37d","longitude":109.64083055469482,"latitude":-20.467949505755055,"height_km":556.0058390312906,"velocity_kms":7.583476844358524,"id":"5eed7714096e590006985667"},{"spaceTrack":{"CCSDS_OMM_VERS":"2.0","COMMENT":"GENERATED VIA SPACE-TRACK.ORG API","CREATION_DATE":"2020-09-20 14:46:10","ORIGINATOR":"18 SPCS","OBJECT_NAME":"STARLINK-1030","OBJECT_ID":"2019-074Y","CENTER_NAME":"EARTH","REF_FRAME":"TEME","TIME_SYSTEM":"UTC","MEAN_ELEMENT_THEORY":"SGP4","EPOCH":"2020-09-20 14:00:01.000224","MEAN_MOTION":15.05449036,"ECCENTRICITY":0.0001621,"INCLINATION":52.9982,"RA_OF_ASC_NODE":167.4871,"ARG_OF_PERICENTER":75.0593,"MEAN_ANOMALY":256.1426,"EPHEMERIS_TYPE":0,"CLASSIFICATION_TYPE":"U","NORAD_CAT_ID":44735,"ELEMENT_SET_NO":999,"REV_AT_EPOCH":4778,"BSTAR":0.0093145,"MEAN_MOTION_DOT":0.00137624,"MEAN_MOTION_DDOT":0,"SEMIMAJOR_AXIS":6928.264,"PERIOD":95.652,"APOAPSIS":551.252,"PERIAPSIS":549.006,"OBJECT_TYPE":"PAYLOAD","RCS_SIZE":"LARGE","COUNTRY_CODE":"US","LAUNCH_DATE":"2019-11-11","SITE":"AFETR","DECAY_DATE":null,"DECAYED":0,"FILE":2829291,"GP_ID":161775178,"TLE_LINE0":"0 STARLINK-1030","TLE_LINE1":"1 44735U 19074Y   20264.58334491  .00137624  00000-0  93145-2 0  9992","TLE_LINE2":"2 44735  52.9982 167.4871 0001621  75.0593 256.1426 15.05449036 47782"},"version":"v1.0","launch":"5eb87d39ffd86e000604b37d","longitude":-86.02351584079612,"latitude":-23.921849854185442,"height_km":557.2296073442776,"velocity_kms":7.582818020644614,"id":"5eed7714096e590006985668"},{"spaceTrack":{"CCSDS_OMM_VERS":"2.0","COMMENT":"GENERATED VIA SPACE-TRACK.ORG API","CREATION_DATE":"2020-09-20 02:31:57","ORIGINATOR":"18 SPCS","OBJECT_NAME":"STARLINK-1041","OBJECT_ID":"2019-074AK","CENTER_NAME":"EARTH","REF_FRAME":"TEME","TIME_SYSTEM":"UTC","MEAN_ELEMENT_THEORY":"SGP4","EPOCH":"2020-09-19 20:00:01.000224","MEAN_MOTION":15.05627521,"ECCENTRICITY":0.000164,"INCLINATION":52.9994,"RA_OF_ASC_NODE":190.8516,"ARG_OF_PERICENTER":87.968,"MEAN_ANOMALY":46.1062,"EPHEMERIS_TYPE":0,"CLASSIFICATION_TYPE":"U","NORAD_CAT_ID":44746,"ELEMENT_SET_NO":999,"REV_AT_EPOCH":179,"BSTAR":0.00024434,"MEAN_MOTION_DOT":0.00003287,"MEAN_MOTION_DDOT":0,"SEMIMAJOR_AXIS":6927.717,"PERIOD":95.641,"APOAPSIS":550.718,"PERIAPSIS":548.445,"OBJECT_TYPE":"PAYLOAD","RCS_SIZE":"LARGE","COUNTRY_CODE":"US","LAUNCH_DATE":"2019-11-11","SITE":"AFETR","DECAY_DATE":null,"DECAYED":0,"FILE":2828634,"GP_ID":161758967,"TLE_LINE0":"0 STARLINK-1041","TLE_LINE1":"1 44746U 19074AK  20263.83334491 +.00003287 +00000-0 +24434-3 0  9994","TLE_LINE2":"2 44746 052.9994 190.8516 0001640 087.9680 046.1062 15.05627521001794"},"version":"v1.0","launch":"5eb87d39ffd86e000604b37d","longitude":179.8390910009275,"latitude":-44.0404209407243,"height_km":565.3534826680088,"velocity_kms":7.57777503676969,"id":"5eed7714096e590006985669"},{"spaceTrack":{"CCSDS_OMM_VERS":"2.0","COMMENT":"GENERATED VIA SPACE-TRACK.ORG API","CREATION_DATE":"2020-09-02 19:16:09","ORIGINATOR":"18 SPCS","OBJECT_NAME":"STARLINK-1040","OBJECT_ID":"2019-074AJ","CENTER_NAME":"EARTH","REF_FRAME":"TEME","TIME_SYSTEM":"UTC","MEAN_ELEMENT_THEORY":"SGP4","EPOCH":"2020-09-02 18:35:47.421888","MEAN_MOTION":16.52708336,"ECCENTRICITY":0.0006885,"INCLINATION":52.9611,"RA_OF_ASC_NODE":104.7789,"ARG_OF_PERICENTER":265.0997,"MEAN_ANOMALY":95.3587,"EPHEMERIS_TYPE":0,"CLASSIFICATION_TYPE":"U","NORAD_CAT_ID":44745,"ELEMENT_SET_NO":999,"REV_AT_EPOCH":4707,"BSTAR":0.00015628,"MEAN_MOTION_DOT":0.21998659,"MEAN_MOTION_DDOT":0.000012712,"SEMIMAJOR_AXIS":6510.35,"PERIOD":87.129,"APOAPSIS":136.697,"PERIAPSIS":127.733,"OBJECT_TYPE":"PAYLOAD","RCS_SIZE":"LARGE","COUNTRY_CODE":"US","LAUNCH_DATE":"2019-11-11","SITE":"AFETR","DECAY_DATE":"2020-09-03","DECAYED":1,"FILE":2813122,"GP_ID":160602541,"TLE_LINE0":"0 STARLINK-1040","TLE_LINE1":"1 44745U 19074AJ  20246.77485442  .21998659  12712-4  15628-3 0  9991","TLE_LINE2":"2 44745  52.9611 104.7789 0006885 265.0997  95.3587 16.52708336 47077"},"version":"v1.0","launch":"5eb87d39ffd86e000604b37d","longitude":null,"latitude":null,"height_km":null,"velocity_kms":null,"id":"5eed7714096e59000698566a"},{"spaceTrack":{"CCSDS_OMM_VERS":"2.0","COMMENT":"GENERATED VIA SPACE-TRACK.ORG API","CREATION_DATE":"2020-09-20 06:36:10","ORIGINATOR":"18 SPCS","OBJECT_NAME":"STARLINK-1056","OBJECT_ID":"2019-074BA","CENTER_NAME":"EARTH","REF_FRAME":"TEME","TIME_SYSTEM":"UTC","MEAN_ELEMENT_THEORY":"SGP4","EPOCH":"2020-09-20 04:00:00.999936","MEAN_MOTION":15.05566972,"ECCENTRICITY":0.0001748,"INCLINATION":53.0003,"RA_OF_ASC_NODE":189.3556,"ARG_OF_PERICENTER":74.2109,"MEAN_ANOMALY":265.5224,"EPHEMERIS_TYPE":0,"CLASSIFICATION_TYPE":"U","NORAD_CAT_ID":44761,"ELEMENT_SET_NO":999,"REV_AT_EPOCH":4745,"BSTAR":0.0013034,"MEAN_MOTION_DOT":0.00018755,"MEAN_MOTION_DDOT":0,"SEMIMAJOR_AXIS":6927.902,"PERIOD":95.645,"APOAPSIS":550.978,"PERIAPSIS":548.556,"OBJECT_TYPE":"PAYLOAD","RCS_SIZE":"LARGE","COUNTRY_CODE":"US","LAUNCH_DATE":"2019-11-11","SITE":"AFETR","DECAY_DATE":null,"DECAYED":0,"FILE":2828824,"GP_ID":161765787,"TLE_LINE0":"0 STARLINK-1056","TLE_LINE1":"1 44761U 19074BA  20264.16667824  .00018755  00000-0  13034-2 0  9996","TLE_LINE2":"2 44761  53.0003 189.3556 0001748  74.2109 265.5224 15.05566972 47457"},"version":"v1.0","launch":"5eb87d39ffd86e000604b37d","longitude":23.85535698858947,"latitude":51.508398188039706,"height_km":554.6742908970673,"velocity_kms":7.5912284448989205,"id":"5eed7714096e59000698566b"},{"spaceTrack":{"CCSDS_OMM_VERS":"2.0","COMMENT":"GENERATED VIA SPACE-TRACK.ORG API","CREATION_DATE":"2020-09-20 02:31:57","ORIGINATOR":"18 SPCS","OBJECT_NAME":"STARLINK-1036","OBJECT_ID":"2019-074AE","CENTER_NAME":"EARTH","REF_FRAME":"TEME","TIME_SYSTEM":"UTC","MEAN_ELEMENT_THEORY":"SGP4","EPOCH":"2020-09-19 20:00:01.000224","MEAN_MOTION":15.05584796,"ECCENTRICITY":0.0001666,"INCLINATION":52.9992,"RA_OF_ASC_NODE":170.8512,"ARG_OF_PERICENTER":88.8114,"MEAN_ANOMALY":315.024,"EPHEMERIS_TYPE":0,"CLASSIFICATION_TYPE":"U","NORAD_CAT_ID":44741,"ELEMENT_SET_NO":999,"REV_AT_EPOCH":180,"BSTAR":-0.0016199,"MEAN_MOTION_DOT":-0.00023806,"MEAN_MOTION_DDOT":0,"SEMIMAJOR_AXIS":6927.848,"PERIOD":95.643,"APOAPSIS":550.867,"PERIAPSIS":548.558,"OBJECT_TYPE":"PAYLOAD","RCS_SIZE":"LARGE","COUNTRY_CODE":"US","LAUNCH_DATE":"2019-11-11","SITE":"AFETR","DECAY_DATE":null,"DECAYED":0,"FILE":2828634,"GP_ID":161761501,"TLE_LINE0":"0 STARLINK-1036","TLE_LINE1":"1 44741U 19074AE  20263.83334491 -.00023806 +00000-0 -16199-2 0  9998","TLE_LINE2":"2 44741 052.9992 170.8512 0001666 088.8114 315.0240 15.05584796001805"},"version":"v1.0","launch":"5eb87d39ffd86e000604b37d","longitude":94.09250591789491,"latitude":23.79562372395669,"height_km":550.0482446334709,"velocity_kms":7.590530015788742,"id":"5eed7714096e59000698566c"},{"spaceTrack":{"CCSDS_OMM_VERS":"2.0","COMMENT":"GENERATED VIA SPACE-TRACK.ORG API","CREATION_DATE":"2020-09-19 22:46:10","ORIGINATOR":"18 SPCS","OBJECT_NAME":"STARLINK-1054","OBJECT_ID":"2019-074AY","CENTER_NAME":"EARTH","REF_FRAME":"TEME","TIME_SYSTEM":"UTC","MEAN_ELEMENT_THEORY":"SGP4","EPOCH":"2020-09-19 22:00:00.999936","MEAN_MOTION":15.05588197,"ECCENTRICITY":0.0001243,"INCLINATION":53.0021,"RA_OF_ASC_NODE":190.4775,"ARG_OF_PERICENTER":78.3159,"MEAN_ANOMALY":327.5301,"EPHEMERIS_TYPE":0,"CLASSIFICATION_TYPE":"U","NORAD_CAT_ID":44759,"ELEMENT_SET_NO":999,"REV_AT_EPOCH":4741,"BSTAR":-0.0020553,"MEAN_MOTION_DOT":-0.00030105,"MEAN_MOTION_DDOT":0,"SEMIMAJOR_AXIS":6927.837,"PERIOD":95.643,"APOAPSIS":550.563,"PERIAPSIS":548.841,"OBJECT_TYPE":"PAYLOAD","RCS_SIZE":"LARGE","COUNTRY_CODE":"US","LAUNCH_DATE":"2019-11-11","SITE":"AFETR","DECAY_DATE":null,"DECAYED":0,"FILE":2828434,"GP_ID":161736559,"TLE_LINE0":"0 STARLINK-1054","TLE_LINE1":"1 44759U 19074AY  20263.91667824 -.00030105  00000-0 -20553-2 0  9994","TLE_LINE2":"2 44759  53.0021 190.4775 0001243  78.3159 327.5301 15.05588197 47414"},"version":"v1.0","launch":"5eb87d39ffd86e000604b37d","longitude":-0.6694072053323664,"latitude":43.79993649720695,"height_km":553.4467582161296,"velocity_kms":7.590908758171247,"id":"5eed7714096e59000698566d"}]